ORBCOMM FM115           
1 41186U 15081H   25323.86384042  .00000906  00000+0  20974-3 0  9994
2 41186  47.0001  18.9863 0000485 325.7309  34.3547 14.62854236530561
ORBCOMM FM108           
1 41187U 15081J   25323.76413349  .00001002  00000+0  24994-3 0  9991
2 41187  47.0034  92.0819 0002764 293.4210  66.6385 14.58512401529506
ORBCOMM FM117           
1 41188U 15081K   25323.73044913  .00000694  00000+0  18448-3 0  9999
2 41188  47.0009  90.9532 0003139 304.5039  55.5550 14.58504414529548
ORBCOMM FM116           
1 41189U 15081L   25323.91701452  .00000714  00000+0  18826-3 0  9991
2 41189  47.0009 179.8509 0001671 168.2349 191.8577 14.58595757528382
